{"type": "FeatureCollection", "features": [ {"type": "Feature", "properties": {"norad_id": 40315, "name": "COSMOS 2501 (702K)", "group": "gnss", "lat": -3.6342021004826424, "lon": 18.989897043357804, "alt_km": 19082.791666795332, "timestamp": "2025-12-02T10:50:47.515344+00:00", "meta": {"OBJECT_NAME": "COSMOS 2501 (702K)", "OBJECT_ID": "2014-075A", "EPOCH": "2025-11-30T19:17:52.497312", "MEAN_MOTION": 2.13101305, "ECCENTRICITY": 0.00201676, "INCLINATION": 63.6137, "RA_OF_ASC_NODE": 197.2386, "ARG_OF_PERICENTER": 204.7979, "MEAN_ANOMALY": 155.1955, "EPHEMERIS_TYPE": 0, "CLASSIFICATION_TYPE": "U", "NORAD_CAT_ID": 40315, "ELEMENT_SET_NO": 999, "REV_AT_EPOCH": 8562, "BSTAR": 0, "MEAN_MOTION_DOT": 1e-06, "MEAN_MOTION_DDOT": 0}, "tle": {"line1": "1 40315U 14075A   25334.80407983  .00000100  00000+0  00000+0 0  9995", "line2": "2 40315  63.6137 197.2386 0020167 204.7979 155.1955  2.13101305 85629"}}, "geometry": {"type": "Point", "coordinates": [18.989897043357804, -3.6342021004826424]}}, {"type": "Feature", "properties": {"norad_id": 40534, "name": "GPS BIIF-9  (PRN 26)", "group": "gnss", "lat": -44.25583651262327, "lon": 79.10323446385759, "alt_km": 20448.932469556938, "timestamp": "2025-12-02T10:50:47.515356+00:00", "meta": {"OBJECT_NAME": "GPS BIIF-9  (PRN 26)", "OBJECT_ID": "2015-013A", "EPOCH": "2025-12-01T02:55:38.238240", "MEAN_MOTION": 2.00563184, "ECCENTRICITY": 0.01065399, "INCLINATION": 53.1998, "RA_OF_ASC_NODE": 212.3715, "ARG_OF_PERICENTER": 38.192, "MEAN_ANOMALY": 322.6465, "EPHEMERIS_TYPE": 0, "CLASSIFICATION_TYPE": "U", "NORAD_CAT_ID": 40534, "ELEMENT_SET_NO": 999, "REV_AT_EPOCH": 7785, "BSTAR": 0, "MEAN_MOTION_DOT": 6.6e-07, "MEAN_MOTION_DDOT": 0}, "tle": {"line1": "1 40534U 15013A   25335.12197035  .00000066  00000+0  00000+0 0  9992", "line2": "2 40534  53.1998 212.3715 0106539  38.1920 322.6465  2.00563184 77855"}}, "geometry": {"type": "Point", "coordinates": [79.10323446385759, -44.25583651262327]}}, {"type": "Feature", "properties": {"norad_id": 40544, "name": "GSAT0203 (GALILEO 7)", "group": "gnss", "lat": -19.342642484441463, "lon": -179.76584710638375, "alt_km": 23216.229328937174, "timestamp": "2025-12-02T10:50:47.515368+00:00", "meta": {"OBJECT_NAME": "GSAT0203 (GALILEO 7)", "OBJECT_ID": "2015-017A", "EPOCH": "2025-12-02T02:53:32.216928", "MEAN_MOTION": 1.70475823, "ECCENTRICITY": 0.0006518, "INCLINATION": 56.8491, "RA_OF_ASC_NODE": 346.9701, "ARG_OF_PERICENTER": 267.4937, "MEAN_ANOMALY": 92.4718, "EPHEMERIS_TYPE": 0, "CLASSIFICATION_TYPE": "U", "NORAD_CAT_ID": 40544, "ELEMENT_SET_NO": 999, "REV_AT_EPOCH": 6584, "BSTAR": 0, "MEAN_MOTION_DOT": -6.2e-07, "MEAN_MOTION_DDOT": 0}, "tle": {"line1": "1 40544U 15017A   25336.12051177 -.00000062  00000+0  00000+0 0  9991", "line2": "2 40544  56.8491 346.9701 0006518 267.4937  92.4718  1.70475823 65841"}}, "geometry": {"type": "Point", "coordinates": [-179.76584710638375, -19.342642484441463]}}, {"type": "Feature", "properties": {"norad_id": 40545, "name": "GSAT0204 (GALILEO 8)", "group": "gnss", "lat": 37.46421225379086, "lon": 17.042186208055476, "alt_km": 23233.015502842773, "timestamp": "2025-12-02T10:50:47.515379+00:00", "meta": {"OBJECT_NAME": "GSAT0204 (GALILEO 8)", "OBJECT_ID": "2015-017B", "EPOCH": "2025-12-01T18:56:42.196128", "MEAN_MOTION": 1.70475405, "ECCENTRICITY": 0.0006266, "INCLINATION": 56.854, "RA_OF_ASC_NODE": 346.9967, "ARG_OF_PERICENTER": 260.0885, "MEAN_ANOMALY": 99.8817, "EPHEMERIS_TYPE": 0, "CLASSIFICATION_TYPE": "U", "NORAD_CAT_ID": 40545, "ELEMENT_SET_NO": 999, "REV_AT_EPOCH": 2888, "BSTAR": 0, "MEAN_MOTION_DOT": -6.1e-07, "MEAN_MOTION_DDOT": 0}, "tle": {"line1": "1 40545U 15017B   25335.78937727 -.00000061  00000+0  00000+0 0  9996", "line2": "2 40545  56.8540 346.9967 0006266 260.0885  99.8817  1.70475405 28882"}}, "geometry": {"type": "Point", "coordinates": [17.042186208055476, 37.46421225379086]}}, {"type": "Feature", "properties": {"norad_id": 40730, "name": "GPS BIIF-10 (PRN 08)", "group": "gnss", "lat": 41.20346789539066, "lon": 55.940933680054016, "alt_km": 20220.24612226307, "timestamp": "2025-12-02T10:50:47.515390+00:00", "meta": {"OBJECT_NAME": "GPS BIIF-10 (PRN 08)", "OBJECT_ID": "2015-033A", "EPOCH": "2025-12-01T06:48:01.040832", "MEAN_MOTION": 2.0056609, "ECCENTRICITY": 0.0110237, "INCLINATION": 54.1408, "RA_OF_ASC_NODE": 275.2444, "ARG_OF_PERICENTER": 26.5253, "MEAN_ANOMALY": 334.0329, "EPHEMERIS_TYPE": 0, "CLASSIFICATION_TYPE": "U", "NORAD_CAT_ID": 40730, "ELEMENT_SET_NO": 999, "REV_AT_EPOCH": 7602, "BSTAR": 0, "MEAN_MOTION_DOT": -3.9e-07, "MEAN_MOTION_DDOT": 0}, "tle": {"line1": "1 40730U 15033A   25335.28334538 -.00000039  00000+0  00000+0 0  9991", "line2": "2 40730  54.1408 275.2444 0110237  26.5253 334.0329  2.00566090 76020"}}, "geometry": {"type": "Point", "coordinates": [55.940933680054016, 41.20346789539066]}}, {"type": "Feature", "properties": {"norad_id": 40748, "name": "BEIDOU-3S M2S (C58)", "group": "gnss", "lat": 40.83874131295311, "lon": 91.61567526708211, "alt_km": 21550.058633180837, "timestamp": "2025-12-02T10:50:47.515401+00:00", "meta": {"OBJECT_NAME": "BEIDOU-3S M2S (C58)", "OBJECT_ID": "2015-037A", "EPOCH": "2025-12-01T04:31:01.292160", "MEAN_MOTION": 1.86229002, "ECCENTRICITY": 0.0012493, "INCLINATION": 55.0491, "RA_OF_ASC_NODE": 308.8604, "ARG_OF_PERICENTER": 267.0141, "MEAN_ANOMALY": 92.8367, "EPHEMERIS_TYPE": 0, "CLASSIFICATION_TYPE": "U", "NORAD_CAT_ID": 40748, "ELEMENT_SET_NO": 999, "REV_AT_EPOCH": 7043, "BSTAR": 0, "MEAN_MOTION_DOT": -5.6e-07, "MEAN_MOTION_DDOT": 0}, "tle": {"line1": "1 40748U 15037A   25335.18820940 -.00000056  00000+0  00000+0 0  9999", "line2": "2 40748  55.0491 308.8604 0012493 267.0141  92.8367  1.86229002 70437"}}, "geometry": {"type": "Point", "coordinates": [91.61567526708211, 40.83874131295311]}}, {"type": "Feature", "properties": {"norad_id": 40749, "name": "BEIDOU-3S M1S (C57)", "group": "gnss", "lat": -22.625089528916874, "lon": -68.15579209473162, "alt_km": 21520.38496205917, "timestamp": "2025-12-02T10:50:47.515412+00:00", "meta": {"OBJECT_NAME": "BEIDOU-3S M1S (C57)", "OBJECT_ID": "2015-037B", "EPOCH": "2025-11-26T01:13:29.678016", "MEAN_MOTION": 1.8625392, "ECCENTRICITY": 0.00032681, "INCLINATION": 55.0504, "RA_OF_ASC_NODE": 309.0266, "ARG_OF_PERICENTER": 354.4635, "MEAN_ANOMALY": 5.5327, "EPHEMERIS_TYPE": 0, "CLASSIFICATION_TYPE": "U", "NORAD_CAT_ID": 40749, "ELEMENT_SET_NO": 999, "REV_AT_EPOCH": 7034, "BSTAR": 0, "MEAN_MOTION_DOT": -4e-07, "MEAN_MOTION_DDOT": 0}, "tle": {"line1": "1 40749U 15037B   25330.05103794 -.00000040  00000+0  00000+0 0  9995", "line2": "2 40749  55.0504 309.0266 0003268 354.4635   5.5327  1.86253920 70342"}}, "geometry": {"type": "Point", "coordinates": [-68.15579209473162, -22.625089528916874]}}, {"type": "Feature", "properties": {"norad_id": 40889, "name": "GSAT0205 (GALILEO 9)", "group": "gnss", "lat": -7.24491524885587, "lon": 52.144997346398796, "alt_km": 23238.633588081968, "timestamp": "2025-12-02T10:50:47.515423+00:00", "meta": {"OBJECT_NAME": "GSAT0205 (GALILEO 9)", "OBJECT_ID": "2015-045A", "EPOCH": "2025-11-30T23:18:34.752384", "MEAN_MOTION": 1.70472884, "ECCENTRICITY": 0.00058923, "INCLINATION": 55.0077, "RA_OF_ASC_NODE": 227.0837, "ARG_OF_PERICENTER": 38.7902, "MEAN_ANOMALY": 321.3287, "EPHEMERIS_TYPE": 0, "CLASSIFICATION_TYPE": "U", "NORAD_CAT_ID": 40889, "ELEMENT_SET_NO": 999, "REV_AT_EPOCH": 6363, "BSTAR": 0, "MEAN_MOTION_DOT": 3e-07, "MEAN_MOTION_DDOT": 0}, "tle": {"line1": "1 40889U 15045A   25334.97123556  .00000030  00000+0  00000+0 0  9990", "line2": "2 40889  55.0077 227.0837 0005892  38.7902 321.3287  1.70472884 63632"}}, "geometry": {"type": "Point", "coordinates": [52.144997346398796, -7.24491524885587]}}, {"type": "Feature", "properties": {"norad_id": 40890, "name": "GSAT0206 (GALILEO 10)", "group": "gnss", "lat": 41.11790045062357, "lon": -95.33129957140996, "alt_km": 23207.947429998014, "timestamp": "2025-12-02T10:50:47.515434+00:00", "meta": {"OBJECT_NAME": "GSAT0206 (GALILEO 10)", "OBJECT_ID": "2015-045B", "EPOCH": "2025-12-01T18:40:58.746144", "MEAN_MOTION": 1.70473031, "ECCENTRICITY": 0.0003438, "INCLINATION": 55.0064, "RA_OF_ASC_NODE": 227.0564, "ARG_OF_PERICENTER": 30.2471, "MEAN_ANOMALY": 329.8532, "EPHEMERIS_TYPE": 0, "CLASSIFICATION_TYPE": "U", "NORAD_CAT_ID": 40890, "ELEMENT_SET_NO": 999, "REV_AT_EPOCH": 6367, "BSTAR": 0, "MEAN_MOTION_DOT": 3.4e-07, "MEAN_MOTION_DDOT": 0}, "tle": {"line1": "1 40890U 15045B   25335.77845771  .00000034  00000+0  00000+0 0  9995", "line2": "2 40890  55.0064 227.0564 0003438  30.2471 329.8532  1.70473031 63674"}}, "geometry": {"type": "Point", "coordinates": [-95.33129957140996, 41.11790045062357]}}, {"type": "Feature", "properties": {"norad_id": 40938, "name": "BEIDOU-3S IGSO-2S (C56)", "group": "gnss", "lat": 45.15422289197536, "lon": -39.991205514965216, "alt_km": 35908.931095967346, "timestamp": "2025-12-02T10:50:47.515448+00:00", "meta": {"OBJECT_NAME": "BEIDOU-3S IGSO-2S (C56)", "OBJECT_ID": "2015-053A", "EPOCH": "2025-11-30T14:22:32.938176", "MEAN_MOTION": 1.00272475, "ECCENTRICITY": 0.0061056, "INCLINATION": 49.5325, "RA_OF_ASC_NODE": 261.1514, "ARG_OF_PERICENTER": 188.8099, "MEAN_ANOMALY": 291.5463, "EPHEMERIS_TYPE": 0, "CLASSIFICATION_TYPE": "U", "NORAD_CAT_ID": 40938, "ELEMENT_SET_NO": 999, "REV_AT_EPOCH": 3736, "BSTAR": 0, "MEAN_MOTION_DOT": -1.61e-06, "MEAN_MOTION_DDOT": 0}, "tle": {"line1": "1 40938U 15053A   25334.59899234 -.00000161  00000+0  00000+0 0  9991", "line2": "2 40938  49.5325 261.1514 0061056 188.8099 291.5463  1.00272475 37362"}}, "geometry": {"type": "Point", "coordinates": [-39.991205514965216, 45.15422289197536]}}]}